H1 CPF 01  gfz 2022 07 01 12  6822 tandemx   
H2 1003001  6202 36605    2022 07 01 12 59 42 2022 07 06 00 00 42   120 1 1  0 0 0
H9
10 0 59761  63342.000000  0    4706265.082   -128488.567   5018816.164
10 0 59761  63462.000000  0    4004873.383   -317055.179   5585562.216
10 0 59761  63582.000000  0    3230394.429   -487170.392   6054056.167
10 0 59761  63702.000000  0    2396734.681   -634708.640   6416095.259
10 0 59761  63822.000000  0    1518888.868   -756192.525   6665348.257
10 0 59761  63942.000000  0     612666.265   -848869.211   6797461.567
10 0 59761  64062.000000  0    -305596.664   -910769.154   6810129.808
10 0 59761  64182.000000  0   -1219330.404   -940746.528   6703132.376
10 0 59761  64302.000000  0   -2112030.094   -938500.459   6478336.453
10 0 59761  64422.000000  0   -2967551.896   -904576.392   6139666.166
10 0 59761  64542.000000  0   -3770404.951   -840347.909   5693039.992
10 0 59761  64662.000000  0   -4506035.852   -747980.002   5146274.257
10 0 59761  64782.000000  0   -5161099.124   -630374.003   4508952.231
10 0 59761  64902.000000  0   -5723707.341   -491094.702   3792260.236
10 0 59761  65022.000000  0   -6183655.434   -334281.296   3008793.693
10 0 59761  65142.000000  0   -6532615.479   -164543.979   2172337.388
10 0 59761  65262.000000  0   -6764298.284     13152.039   1297620.637
10 0 59761  65382.000000  0   -6874574.792    193611.187    400051.775
10 0 59761  65502.000000  0   -6861554.349    371538.287   -504561.504
10 0 59761  65622.000000  0   -6725617.347    541672.496  -1400299.956
10 0 59761  65742.000000  0   -6469401.280    698920.165  -2271420.989
10 0 59761  65862.000000  0   -6097744.251    838483.558  -3102641.510
10 0 59761  65982.000000  0   -5617583.739    955982.738  -3879412.962
10 0 59761  66102.000000  0   -5037813.082   1047566.769  -4588176.598
10 0 59761  66222.000000  0   -4369103.727   1110011.842  -5216596.789
10 0 59761  66342.000000  0   -3623696.877   1140804.180  -5753768.361
10 0 59761  66462.000000  0   -2815170.660   1138206.027  -6190395.890
10 0 59761  66582.000000  0   -1958187.634   1101303.332  -6518942.964
10 0 59761  66702.000000  0   -1068227.201   1030036.344  -6733751.071
10 0 59761  66822.000000  0    -161308.171    925210.896  -6831125.633
10 0 59761  66942.000000  0     746292.522    788491.137  -6809391.775
10 0 59761  67062.000000  0    1638324.127    622373.674  -6668922.420
10 0 59761  67182.000000  0    2498847.624    430143.075  -6412133.011
10 0 59761  67302.000000  0    3312514.791    215810.020  -6043444.347
10 0 59761  67422.000000  0    4064838.694    -15967.721  -5569213.682
10 0 59761  67542.000000  0    4742450.175   -259980.555  -4997635.613
10 0 59761  67662.000000  0    5333339.827   -510576.316  -4338613.029
10 0 59761  67782.000000  0    5827078.709   -761782.654  -3603595.589
10 0 59761  67902.000000  0    6215012.427  -1007439.814  -2805389.513
10 0 59761  68022.000000  0    6490425.043  -1241341.629  -1957940.359
10 0 59761  68142.000000  0    6648668.221  -1457380.847  -1076091.122
10 0 59761  68262.000000  0    6687250.763  -1649695.372   -175320.291
10 0 59761  68382.000000  0    6605886.631  -1812811.964    728534.665
10 0 59761  68502.000000  0    6406498.693  -1941783.641   1619563.986
10 0 59761  68622.000000  0    6093177.400  -2032317.120   2482074.392
10 0 59761  68742.000000  0    5672095.979  -2080886.718   3300874.877
10 0 59761  68862.000000  0    5151382.935  -2084831.396   4061551.512
10 0 59761  68982.000000  0    4540956.902  -2042433.308   4750724.929
10 0 59761  69102.000000  0    3852329.956  -1952975.143   5356286.853
10 0 59761  69222.000000  0    3098381.788  -1816776.453   5867613.113
10 0 59761  69342.000000  0    2293109.665  -1635207.203   6275745.781
10 0 59761  69462.000000  0    1451362.917  -1410679.129   6573544.239
10 0 59761  69582.000000  0     588564.948  -1146615.116   6755804.528
10 0 59761  69702.000000  0    -279571.600   -847396.340   6819344.585
10 0 59761  69822.000000  0   -1137330.675   -518288.944   6763055.152
10 0 59761  69942.000000  0   -1969275.909   -165351.585   6587917.675
10 0 59761  70062.000000  0   -2760527.116    204675.652   6296988.444
10 0 59761  70182.000000  0   -3497026.499    584498.913   5895349.517
10 0 59761  70302.000000  0   -4165791.144    966412.544   5390025.985
10 0 59761  70422.000000  0   -4755147.249   1342453.261   4789869.122
10 0 59761  70542.000000  0   -5254941.171   1704564.596   4105406.831
10 0 59761  70662.000000  0   -5656722.659   2044767.423   3348662.216
10 0 59761  70782.000000  0   -5953895.874   2355333.113   2532944.145
10 0 59761  70902.000000  0   -6141835.963   2628955.514   1672612.626
10 0 59761  71022.000000  0   -6217967.934   2858917.920    782821.807
10 0 59761  71142.000000  0   -6181803.398   3039250.091   -120754.703
10 0 59761  71262.000000  0   -6034935.080   3164871.254  -1022208.323
10 0 59761  71382.000000  0   -5780989.442   3231715.081  -1905684.546
10 0 59761  71502.000000  0   -5425538.441   3236834.439  -2755670.835
10 0 59761  71622.000000  0   -4975971.525   3178481.994  -3557275.337
10 0 59761  71742.000000  0   -4441333.700   3056165.685  -4296490.403
10 0 59761  71862.000000  0   -3832133.873   2870678.008  -4960435.361
10 0 59761  71982.000000  0   -3160129.442   2624098.831  -5537574.987
10 0 59761  72102.000000  0   -2438093.563   2319773.099  -6017910.135
10 0 59761  72222.000000  0   -1679568.685   1962264.135  -6393141.462
10 0 59761  72342.000000  0    -898610.654   1557282.461  -6656800.582
10 0 59761  72462.000000  0    -109531.237   1111593.490  -6804350.297
10 0 59761  72582.000000  0     673358.552    632905.054  -6833253.617
10 0 59761  72702.000000  0    1436001.327    129737.011  -6743014.424
10 0 59761  72822.000000  0    2164841.057   -388727.403  -6535184.734
10 0 59761  72942.000000  0    2847058.045   -912804.602  -6213340.500
10 0 59761  73062.000000  0    3470791.554  -1432486.714  -5783026.736
10 0 59761  73182.000000  0    4025344.805  -1937627.398  -5251671.772
10 0 59761  73302.000000  0    4501371.985  -2418137.434  -4628471.033
10 0 59761  73422.000000  0    4891041.227  -2864185.097  -3924238.429
10 0 59761  73542.000000  0    5188170.778  -3266396.765  -3151228.647
10 0 59761  73662.000000  0    5388336.568  -3616054.215  -2322931.280
10 0 59761  73782.000000  0    5488946.732  -3905283.917  -1453838.501
10 0 59761  73902.000000  0    5489280.500  -4127233.780   -559191.474
10 0 59761  74022.000000  0    5390490.410  -4276232.723    345290.445
10 0 59761  74142.000000  0    5195566.711  -4347929.069   1243693.550
10 0 59761  74262.000000  0    4909263.134  -4339402.689   2120198.877
10 0 59761  74382.000000  0    4537987.326  -4249247.201   2959369.251
10 0 59761  74502.000000  0    4089658.883  -4077621.299   3746428.578
10 0 59761  74622.000000  0    3573538.853  -3826269.091   4467527.881
10 0 59761  74742.000000  0    3000033.320  -3498507.343   5109992.575
10 0 59761  74862.000000  0    2380478.542  -3099180.229   5662544.654
10 0 59761  74982.000000  0    1726912.172  -2634584.073   6115498.596
10 0 59761  75102.000000  0    1051834.834  -2112363.381   6460925.628
10 0 59761  75222.000000  0     367968.622  -1541381.504   6692786.363
10 0 59761  75342.000000  0    -311983.618   -931567.659   6807030.543
10 0 59761  75462.000000  0    -975573.586   -293742.509   6801663.089
10 0 59761  75582.000000  0   -1610834.368    360573.828   6676776.502
10 0 59761  75702.000000  0   -2206495.528   1019369.385   6434549.423
10 0 59761  75822.000000  0   -2752183.067   1670359.949   6079211.110
10 0 59761  75942.000000  0   -3238601.209   2301217.410   5616972.444
10 0 59761  76062.000000  0   -3657693.955   2899804.054   5055924.159
10 0 59761  76182.000000  0   -4002783.123   3454408.304   4405900.833
10 0 59761  76302.000000  0   -4268679.901   3953977.056   3678313.537
10 0 59761  76422.000000  0   -4451767.861   4388340.630   2885952.594
10 0 59761  76542.000000  0   -4550054.104   4748424.858   2042762.286
10 0 59761  76662.000000  0   -4563186.863   5026444.545   1163591.985
10 0 59761  76782.000000  0   -4492440.486   5216072.564    263929.002
10 0 59761  76902.000000  0   -4340668.102   5312582.060   -640381.638
10 0 59761  77022.000000  0   -4112221.543   5312958.214  -1533426.167
10 0 59761  77142.000000  0   -3812838.662   5215971.602  -2399512.129
10 0 59761  77262.000000  0   -3449504.697   5022217.562  -3223451.076
10 0 59761  77382.000000  0   -3030290.089   4734116.824  -3990829.451
10 0 59761  77502.000000  0   -2564169.904   4355879.447  -4688259.950
10 0 59761  77622.000000  0   -2060830.009   3893435.152  -5303609.710
10 0 59761  77742.000000  0   -1530465.518   3354333.263  -5826203.522
10 0 59761  77862.000000  0    -983574.444   2747612.085  -6247000.377
10 0 59761  77982.000000  0    -430750.895   2083641.049  -6558738.713
10 0 59761  78102.000000  0     117517.045   1373941.038  -6756049.738
10 0 59761  78222.000000  0     651041.212    630985.218  -6835540.511
10 0 59761  78342.000000  0    1160118.427   -132016.402  -6795846.753
10 0 59761  78462.000000  0    1635702.973   -901347.572  -6637652.804
10 0 59761  78582.000000  0    2069562.836  -1663025.912  -6363679.988
10 0 59761  78702.000000  0    2454419.848  -2403050.283  -5978645.213
10 0 59761  78822.000000  0    2784071.167  -3107652.772  -5489189.599
10 0 59761  78942.000000  0    3053491.607  -3763554.630  -4903775.808
10 0 59761  79062.000000  0    3258912.517  -4358217.849  -4232550.568
10 0 59761  79182.000000  0    3397875.686  -4880086.572  -3487179.209
10 0 59761  79302.000000  0    3469263.734  -5318817.837  -2680653.279
10 0 59761  79422.000000  0    3473303.800  -5665495.762  -1827069.159
10 0 59761  79542.000000  0    3411543.887  -5912820.446   -941382.751
10 0 59761  79662.000000  0    3286802.344  -6055269.223    -39144.628
10 0 59761  79782.000000  0    3103089.581  -6089223.129    863779.486
99
